start=new Date('2022-06-28T00:00:00.000Z').valueOf();
sats=[{"FILE":"3504144","ARG_OF_PERICENTER":"31.8232","OBJECT_TYPE":"PAYLOAD","REF_FRAME":"TEME","DECAY_DATE":null,"NORAD_CAT_ID":"52612","SEMIMAJOR_AXIS":"6831.304","ELEMENT_SET_NO":"999","RA_OF_ASC_NODE":"224.7716","TLE_LINE1":"1 52612U 22052Q   22178.91667824 -.00718309  00000-0 -20752-1 0  9997","LAUNCH_DATE":"2022-05-14","OBJECT_ID":"2022-052Q","EPHEMERIS_TYPE":"0","SITE":"AFETR","MEAN_MOTION":"15.37613959","COUNTRY_CODE":"US","MEAN_MOTION_DDOT":"0.0000000000000","ECCENTRICITY":"0.00017780","CLASSIFICATION_TYPE":"U","MEAN_ANOMALY":"307.4168","PERIOD":"93.652","GP_ID":"206994791","INCLINATION":"53.2176","OBJECT_NAME":"STARLINK-4002","BSTAR":"-0.02075200000000","APOAPSIS":"454.384","PERIAPSIS":"451.955","MEAN_MOTION_DOT":"-0.00718309","RCS_SIZE":"LARGE","MEAN_ELEMENT_THEORY":"SGP4","EPOCH":"2022-06-27T22:00:00.999936","CENTER_NAME":"EARTH","TIME_SYSTEM":"UTC","TLE_LINE2":"2 52612  53.2176 224.7716 0001778  31.8232 307.4168 15.37613959  1305","REV_AT_EPOCH":"130"},{"MEAN_MOTION":"15.73128147","COUNTRY_CODE":"US","EPHEMERIS_TYPE":"0","SITE":"AFETR","ECCENTRICITY":"0.00026060","CLASSIFICATION_TYPE":"U","MEAN_MOTION_DDOT":"0.0000000000000","PERIOD":"91.537","MEAN_ANOMALY":"104.5443","GP_ID":"206995062","INCLINATION":"53.2139","BSTAR":"0.00047311000000","APOAPSIS":"351.718","OBJECT_NAME":"STARLINK-3921","RCS_SIZE":"LARGE","MEAN_ELEMENT_THEORY":"SGP4","PERIAPSIS":"348.212","MEAN_MOTION_DOT":"0.00066104","CENTER_NAME":"EARTH","TIME_SYSTEM":"UTC","EPOCH":"2022-06-27T22:00:00.999936","TLE_LINE2":"2 52613  53.2139 221.4668 0002606  17.9387 104.5443 15.73128147  1304","REV_AT_EPOCH":"130","FILE":"3504144","ARG_OF_PERICENTER":"17.9387","OBJECT_TYPE":"PAYLOAD","NORAD_CAT_ID":"52613","REF_FRAME":"TEME","DECAY_DATE":null,"TLE_LINE1":"1 52613U 22052R   22178.91667824  .00066104  00000-0  47311-3 0  9997","RA_OF_ASC_NODE":"221.4668","SEMIMAJOR_AXIS":"6728.100","ELEMENT_SET_NO":"999","OBJECT_ID":"2022-052R","LAUNCH_DATE":"2022-05-14"},{"MEAN_ANOMALY":"108.8867","PERIOD":"91.538","GP_ID":"206994341","INCLINATION":"53.2134","COUNTRY_CODE":"US","MEAN_MOTION":"15.73122665","SITE":"AFETR","EPHEMERIS_TYPE":"0","CLASSIFICATION_TYPE":"U","ECCENTRICITY":"0.00026530","MEAN_MOTION_DDOT":"0.0000000000000","CENTER_NAME":"EARTH","TIME_SYSTEM":"UTC","EPOCH":"2022-06-27T22:00:00.999936","REV_AT_EPOCH":"130","TLE_LINE2":"2 52614  53.2134 221.4686 0002653  12.9791 108.8867 15.73122665  1302","APOAPSIS":"351.766","BSTAR":"0.00047731000000","OBJECT_NAME":"STARLINK-3982","MEAN_ELEMENT_THEORY":"SGP4","RCS_SIZE":"LARGE","MEAN_MOTION_DOT":"0.00066685","PERIAPSIS":"348.196","OBJECT_TYPE":"PAYLOAD","ARG_OF_PERICENTER":"12.9791","FILE":"3504144","OBJECT_ID":"2022-052S","LAUNCH_DATE":"2022-05-14","NORAD_CAT_ID":"52614","REF_FRAME":"TEME","DECAY_DATE":null,"RA_OF_ASC_NODE":"221.4686","TLE_LINE1":"1 52614U 22052S   22178.91667824  .00066685  00000-0  47731-3 0  9998","SEMIMAJOR_AXIS":"6728.116","ELEMENT_SET_NO":"999"},{"DECAY_DATE":null,"REF_FRAME":"TEME","NORAD_CAT_ID":"52615","SEMIMAJOR_AXIS":"6896.115","ELEMENT_SET_NO":"999","TLE_LINE1":"1 52615U 22052T   22178.91667824 -.00847214  00000-0 -46803-1 0  9993","RA_OF_ASC_NODE":"228.0822","LAUNCH_DATE":"2022-05-14","OBJECT_ID":"2022-052T","FILE":"3504144","ARG_OF_PERICENTER":"65.9203","OBJECT_TYPE":"PAYLOAD","OBJECT_NAME":"STARLINK-4011","BSTAR":"-0.04680300000000","APOAPSIS":"518.848","PERIAPSIS":"517.113","MEAN_MOTION_DOT":"-0.00847214","RCS_SIZE":"LARGE","MEAN_ELEMENT_THEORY":"SGP4","EPOCH":"2022-06-27T22:00:00.999936","CENTER_NAME":"EARTH","TIME_SYSTEM":"UTC","TLE_LINE2":"2 52615  53.2176 228.0822 0001258  65.9203 289.5912 15.15988764  1304","REV_AT_EPOCH":"130","EPHEMERIS_TYPE":"0","SITE":"AFETR","MEAN_MOTION":"15.15988764","COUNTRY_CODE":"US","MEAN_MOTION_DDOT":"0.0000000000000","CLASSIFICATION_TYPE":"U","ECCENTRICITY":"0.00012580","MEAN_ANOMALY":"289.5912","PERIOD":"94.988","INCLINATION":"53.2176","GP_ID":"206994895"},{"REV_AT_EPOCH":"130","TLE_LINE2":"2 52616  53.2133 221.4665 0002678  14.5433 108.5421 15.73220983  1303","TIME_SYSTEM":"UTC","CENTER_NAME":"EARTH","EPOCH":"2022-06-27T22:00:00.999936","MEAN_ELEMENT_THEORY":"SGP4","RCS_SIZE":"LARGE","MEAN_MOTION_DOT":"0.00054005","PERIAPSIS":"347.899","APOAPSIS":"351.502","BSTAR":"0.00038635000000","OBJECT_NAME":"STARLINK-4015","INCLINATION":"53.2133","GP_ID":"206994445","MEAN_ANOMALY":"108.5421","PERIOD":"91.532","CLASSIFICATION_TYPE":"U","ECCENTRICITY":"0.00026780","MEAN_MOTION_DDOT":"0.0000000000000","COUNTRY_CODE":"US","MEAN_MOTION":"15.73220983","SITE":"AFETR","EPHEMERIS_TYPE":"0","OBJECT_ID":"2022-052U","LAUNCH_DATE":"2022-05-14","TLE_LINE1":"1 52616U 22052U   22178.91667824  .00054005  00000-0  38635-3 0  9996","RA_OF_ASC_NODE":"221.4665","ELEMENT_SET_NO":"999","SEMIMAJOR_AXIS":"6727.835","NORAD_CAT_ID":"52616","DECAY_DATE":null,"REF_FRAME":"TEME","OBJECT_TYPE":"PAYLOAD","ARG_OF_PERICENTER":"14.5433","FILE":"3504144"},{"PERIAPSIS":"347.403","MEAN_MOTION_DOT":"0.00033609","RCS_SIZE":"LARGE","MEAN_ELEMENT_THEORY":"SGP4","OBJECT_NAME":"STARLINK-3996","BSTAR":"0.00024277000000","APOAPSIS":"352.059","TLE_LINE2":"2 52617  53.2139 221.4586 0003460   7.6511 118.4639 15.73210320  1307","REV_AT_EPOCH":"130","EPOCH":"2022-06-27T22:00:00.999936","CENTER_NAME":"EARTH","TIME_SYSTEM":"UTC","MEAN_MOTION_DDOT":"0.0000000000000","CLASSIFICATION_TYPE":"U","ECCENTRICITY":"0.00034600","EPHEMERIS_TYPE":"0","SITE":"AFETR","MEAN_MOTION":"15.73210320","COUNTRY_CODE":"US","INCLINATION":"53.2139","GP_ID":"206994996","PERIOD":"91.533","MEAN_ANOMALY":"118.4639","SEMIMAJOR_AXIS":"6727.866","ELEMENT_SET_NO":"999","RA_OF_ASC_NODE":"221.4586","TLE_LINE1":"1 52617U 22052V   22178.91667824  .00033609  00000-0  24277-3 0  9991","DECAY_DATE":null,"REF_FRAME":"TEME","NORAD_CAT_ID":"52617","LAUNCH_DATE":"2022-05-14","OBJECT_ID":"2022-052V","FILE":"3504144","ARG_OF_PERICENTER":"7.6511","OBJECT_TYPE":"PAYLOAD"},{"OBJECT_TYPE":"PAYLOAD","ARG_OF_PERICENTER":"19.4730","FILE":"3504144","LAUNCH_DATE":"2022-05-14","OBJECT_ID":"2022-052W","DECAY_DATE":null,"REF_FRAME":"TEME","NORAD_CAT_ID":"52618","ELEMENT_SET_NO":"999","SEMIMAJOR_AXIS":"6727.954","RA_OF_ASC_NODE":"221.4643","TLE_LINE1":"1 52618U 22052W   22178.91667824  .00026038  00000-0  18952-3 0  9993","MEAN_ANOMALY":"104.2426","PERIOD":"91.534","INCLINATION":"53.2133","GP_ID":"206994688","SITE":"AFETR","EPHEMERIS_TYPE":"0","COUNTRY_CODE":"US","MEAN_MOTION":"15.73179283","MEAN_MOTION_DDOT":"0.0000000000000","CLASSIFICATION_TYPE":"U","ECCENTRICITY":"0.00025500","EPOCH":"2022-06-27T22:00:00.999936","CENTER_NAME":"EARTH","TIME_SYSTEM":"UTC","REV_AT_EPOCH":"130","TLE_LINE2":"2 52618  53.2133 221.4643 0002550  19.4730 104.2426 15.73179283  1308","OBJECT_NAME":"STARLINK-3983","APOAPSIS":"351.535","BSTAR":"0.00018952000000","MEAN_MOTION_DOT":"0.00026038","PERIAPSIS":"348.104","MEAN_ELEMENT_THEORY":"SGP4","RCS_SIZE":"LARGE"},{"RA_OF_ASC_NODE":"221.4572","TLE_LINE1":"1 52619U 22052X   22178.91667824  .00012948  00000-0  96556-4 0  9996","SEMIMAJOR_AXIS":"6727.914","ELEMENT_SET_NO":"999","NORAD_CAT_ID":"52619","DECAY_DATE":null,"REF_FRAME":"TEME","OBJECT_ID":"2022-052X","LAUNCH_DATE":"2022-05-14","FILE":"3504144","OBJECT_TYPE":"PAYLOAD","ARG_OF_PERICENTER":"16.1358","MEAN_ELEMENT_THEORY":"SGP4","RCS_SIZE":"LARGE","MEAN_MOTION_DOT":"0.00012948","PERIAPSIS":"347.924","APOAPSIS":"351.634","BSTAR":"0.00009655600000","OBJECT_NAME":"STARLINK-3741","REV_AT_EPOCH":"130","TLE_LINE2":"2 52619  53.2137 221.4572 0002757  16.1358 110.5599 15.73193479  1307","TIME_SYSTEM":"UTC","CENTER_NAME":"EARTH","EPOCH":"2022-06-27T22:00:00.999936","CLASSIFICATION_TYPE":"U","ECCENTRICITY":"0.00027570","MEAN_MOTION_DDOT":"0.0000000000000","COUNTRY_CODE":"US","MEAN_MOTION":"15.73193479","SITE":"AFETR","EPHEMERIS_TYPE":"0","GP_ID":"206994549","INCLINATION":"53.2137","MEAN_ANOMALY":"110.5599","PERIOD":"91.534"},{"MEAN_MOTION":"15.16220728","COUNTRY_CODE":"US","EPHEMERIS_TYPE":"0","SITE":"AFETR","ECCENTRICITY":"0.00012690","CLASSIFICATION_TYPE":"U","MEAN_MOTION_DDOT":"0.0000000000000","MEAN_ANOMALY":"308.9904","PERIOD":"94.973","GP_ID":"206994792","INCLINATION":"53.2176","BSTAR":"-0.04649700000000","APOAPSIS":"518.152","OBJECT_NAME":"STARLINK-3975","RCS_SIZE":"LARGE","MEAN_ELEMENT_THEORY":"SGP4","PERIAPSIS":"516.402","MEAN_MOTION_DOT":"-0.00847281","CENTER_NAME":"EARTH","TIME_SYSTEM":"UTC","EPOCH":"2022-06-27T22:00:00.999936","TLE_LINE2":"2 52620  53.2176 228.0852 0001269  63.1307 308.9904 15.16220728  1307","REV_AT_EPOCH":"130","FILE":"3504144","ARG_OF_PERICENTER":"63.1307","OBJECT_TYPE":"PAYLOAD","NORAD_CAT_ID":"52620","REF_FRAME":"TEME","DECAY_DATE":null,"TLE_LINE1":"1 52620U 22052Y   22178.91667824 -.00847281  00000-0 -46497-1 0  9992","RA_OF_ASC_NODE":"228.0852","ELEMENT_SET_NO":"999","SEMIMAJOR_AXIS":"6895.412","OBJECT_ID":"2022-052Y","LAUNCH_DATE":"2022-05-14"},{"MEAN_ELEMENT_THEORY":"SGP4","RCS_SIZE":"LARGE","MEAN_MOTION_DOT":"-0.00036222","PERIAPSIS":"348.040","APOAPSIS":"351.467","BSTAR":"-0.00025469000000","OBJECT_NAME":"STARLINK-3984","REV_AT_EPOCH":"130","TLE_LINE2":"2 52621  53.2138 221.4543 0002547  18.8098 109.6977 15.73202427  1309","CENTER_NAME":"EARTH","TIME_SYSTEM":"UTC","EPOCH":"2022-06-27T22:00:00.999936","CLASSIFICATION_TYPE":"U","ECCENTRICITY":"0.00025470","MEAN_MOTION_DDOT":"0.0000000000000","COUNTRY_CODE":"US","MEAN_MOTION":"15.73202427","SITE":"AFETR","EPHEMERIS_TYPE":"0","INCLINATION":"53.2138","GP_ID":"206995063","MEAN_ANOMALY":"109.6977","PERIOD":"91.533","TLE_LINE1":"1 52621U 22052Z   22178.91667824 -.00036222  00000-0 -25469-3 0  9996","RA_OF_ASC_NODE":"221.4543","SEMIMAJOR_AXIS":"6727.888","ELEMENT_SET_NO":"999","NORAD_CAT_ID":"52621","DECAY_DATE":null,"REF_FRAME":"TEME","OBJECT_ID":"2022-052Z","LAUNCH_DATE":"2022-05-14","FILE":"3504144","OBJECT_TYPE":"PAYLOAD","ARG_OF_PERICENTER":"18.8098"}];
